{
  "type": "FeatureCollection",
  "features": [
    {
      "type": "Feature",
      "properties": {
        "norad_id": 66878,
        "name": "STARLINK-35866",
        "group": "last-30-days",
        "lat": 52.82946746654409,
        "lon": 125.95572663905857,
        "alt_km": 324.66895197905615,
        "timestamp": "2025-12-18T13:51:48.380892+00:00",
        "meta_object_name": "STARLINK-35866",
        "meta_object_id": "2025-283A",
        "meta_epoch": "2025-12-18T06:00:02.999808",
        "meta_mean_motion": 15.80228542,
        "meta_eccentricity": 9.827e-05,
        "meta_inclination": 53.1554,
        "meta_ra_of_asc_node": 46.1172,
        "meta_arg_of_pericenter": 71.9598,
        "meta_mean_anomaly": 308.6916,
        "meta_ephemeris_type": 0,
        "meta_classification_type": "U",
        "meta_norad_cat_id": 66878,
        "meta_element_set_no": 999,
        "meta_rev_at_epoch": 331,
        "meta_bstar": -0.0079139781,
        "meta_mean_motion_dot": -0.0135482,
        "meta_mean_motion_ddot": 0,
        "tle_line1": "1 66878U 25283A   25352.25003472 -.01354820  00000+0 -79140-2 0  9992",
        "tle_line2": "2 66878  53.1554  46.1172 0000982  71.9598 308.6916 15.80228542  3316"
      },
      "geometry": {
        "type": "Point",
        "coordinates": [
          125.95572663905857,
          52.82946746654409
        ]
      }
    },
    {
      "type": "Feature",
      "properties": {
        "norad_id": 66879,
        "name": "STARLINK-35749",
        "group": "last-30-days",
        "lat": 53.13328206907754,
        "lon": 133.85778731984763,
        "alt_km": 324.85944091832334,
        "timestamp": "2025-12-18T13:51:48.380902+00:00",
        "meta_object_name": "STARLINK-35749",
        "meta_object_id": "2025-283B",
        "meta_epoch": "2025-12-18T06:00:02.999808",
        "meta_mean_motion": 15.80126049,
        "meta_eccentricity": 0.00011487,
        "meta_inclination": 53.155,
        "meta_ra_of_asc_node": 46.1065,
        "meta_arg_of_pericenter": 69.1895,
        "meta_mean_anomaly": 316.3513,
        "meta_ephemeris_type": 0,
        "meta_classification_type": "U",
        "meta_norad_cat_id": 66879,
        "meta_element_set_no": 999,
        "meta_rev_at_epoch": 331,
        "meta_bstar": -0.0080460642,
        "meta_mean_motion_dot": -0.01369275,
        "meta_mean_motion_ddot": 0,
        "tle_line1": "1 66879U 25283B   25352.25003472 -.01369275  00000+0 -80461-2 0  9991",
        "tle_line2": "2 66879  53.1550  46.1065 0001148  69.1895 316.3513 15.80126049  3316"
      },
      "geometry": {
        "type": "Point",
        "coordinates": [
          133.85778731984763,
          53.13328206907754
        ]
      }
    },
    {
      "type": "Feature",
      "properties": {
        "norad_id": 66880,
        "name": "STARLINK-35844",
        "group": "last-30-days",
        "lat": 53.042964014977166,
        "lon": 129.7828889687987,
        "alt_km": 324.77981017776165,
        "timestamp": "2025-12-18T13:51:48.380916+00:00",
        "meta_object_name": "STARLINK-35844",
        "meta_object_id": "2025-283C",
        "meta_epoch": "2025-12-18T06:00:02.999808",
        "meta_mean_motion": 15.80187948,
        "meta_eccentricity": 9.804e-05,
        "meta_inclination": 53.1554,
        "meta_ra_of_asc_node": 46.1124,
        "meta_arg_of_pericenter": 72.4855,
        "meta_mean_anomaly": 310.5328,
        "meta_ephemeris_type": 0,
        "meta_classification_type": "U",
        "meta_norad_cat_id": 66880,
        "meta_element_set_no": 999,
        "meta_rev_at_epoch": 331,
        "meta_bstar": -0.0079855558,
        "meta_mean_motion_dot": -0.01363467,
        "meta_mean_motion_ddot": 0,
        "tle_line1": "1 66880U 25283C   25352.25003472 -.01363467  00000+0 -79856-2 0  9996",
        "tle_line2": "2 66880  53.1554  46.1124 0000980  72.4855 310.5328 15.80187948  3319"
      },
      "geometry": {
        "type": "Point",
        "coordinates": [
          129.7828889687987,
          53.042964014977166
        ]
      }
    },
    {
      "type": "Feature",
      "properties": {
        "norad_id": 66881,
        "name": "STARLINK-35860",
        "group": "last-30-days",
        "lat": 53.09865498070936,
        "lon": 137.40056470689674,
        "alt_km": 325.00664626996786,
        "timestamp": "2025-12-18T13:51:48.380926+00:00",
        "meta_object_name": "STARLINK-35860",
        "meta_object_id": "2025-283D",
        "meta_epoch": "2025-12-18T06:00:02.999808",
        "meta_mean_motion": 15.80107528,
        "meta_eccentricity": 9.897e-05,
        "meta_inclination": 53.155,
        "meta_ra_of_asc_node": 46.1019,
        "meta_arg_of_pericenter": 85.3537,
        "meta_mean_anomaly": 302.341,
        "meta_ephemeris_type": 0,
        "meta_classification_type": "U",
        "meta_norad_cat_id": 66881,
        "meta_element_set_no": 999,
        "meta_rev_at_epoch": 331,
        "meta_bstar": -0.008095298,
        "meta_mean_motion_dot": -0.01375603,
        "meta_mean_motion_ddot": 0,
        "tle_line1": "1 66881U 25283D   25352.25003472 -.01375603  00000+0 -80953-2 0  9992",
        "tle_line2": "2 66881  53.1550  46.1019 0000989  85.3537 302.3410 15.80107528  3315"
      },
      "geometry": {
        "type": "Point",
        "coordinates": [
          137.40056470689674,
          53.09865498070936
        ]
      }
    },
    {
      "type": "Feature",
      "properties": {
        "norad_id": 66882,
        "name": "STARLINK-35912",
        "group": "last-30-days",
        "lat": 52.94477558098827,
        "lon": 141.1868461251028,
        "alt_km": 325.112405234202,
        "timestamp": "2025-12-18T13:51:48.380941+00:00",
        "meta_object_name": "STARLINK-35912",
        "meta_object_id": "2025-283E",
        "meta_epoch": "2025-12-18T06:00:02.999808",
        "meta_mean_motion": 15.800703,
        "meta_eccentricity": 0.00010865,
        "meta_inclination": 53.1552,
        "meta_ra_of_asc_node": 46.0975,
        "meta_arg_of_pericenter": 76.7404,
        "meta_mean_anomaly": 313.282,
        "meta_ephemeris_type": 0,
        "meta_classification_type": "U",
        "meta_norad_cat_id": 66882,
        "meta_element_set_no": 999,
        "meta_rev_at_epoch": 331,
        "meta_bstar": -0.0081808275,
        "meta_mean_motion_dot": -0.01386474,
        "meta_mean_motion_ddot": 0,
        "tle_line1": "1 66882U 25283E   25352.25003472 -.01386474  00000+0 -81808-2 0  9991",
        "tle_line2": "2 66882  53.1552  46.0975 0001086  76.7404 313.2820 15.80070300  3317"
      },
      "geometry": {
        "type": "Point",
        "coordinates": [
          141.1868461251028,
          52.94477558098827
        ]
      }
    },
    {
      "type": "Feature",
      "properties": {
        "norad_id": 66883,
        "name": "STARLINK-35947",
        "group": "last-30-days",
        "lat": 52.65991615133581,
        "lon": 145.06311431817588,
        "alt_km": 325.46071509146077,
        "timestamp": "2025-12-18T13:51:48.380952+00:00",
        "meta_object_name": "STARLINK-35947",
        "meta_object_id": "2025-283F",
        "meta_epoch": "2025-12-18T06:00:02.999808",
        "meta_mean_motion": 15.8001785,
        "meta_eccentricity": 8.364e-05,
        "meta_inclination": 53.1554,
        "meta_ra_of_asc_node": 46.0928,
        "meta_arg_of_pericenter": 85.986,
        "meta_mean_anomaly": 306.4619,
        "meta_ephemeris_type": 0,
        "meta_classification_type": "U",
        "meta_norad_cat_id": 66883,
        "meta_element_set_no": 999,
        "meta_rev_at_epoch": 336,
        "meta_bstar": -0.0082307702,
        "meta_mean_motion_dot": -0.01390859,
        "meta_mean_motion_ddot": 0,
        "tle_line1": "1 66883U 25283F   25352.25003472 -.01390859  00000+0 -82308-2 0  9990",
        "tle_line2": "2 66883  53.1554  46.0928 0000836  85.9860 306.4619 15.80017850  3364"
      },
      "geometry": {
        "type": "Point",
        "coordinates": [
          145.06311431817588,
          52.65991615133581
        ]
      }
    },
    {
      "type": "Feature",
      "properties": {
        "norad_id": 66884,
        "name": "STARLINK-36057",
        "group": "last-30-days",
        "lat": 51.733551092297304,
        "lon": 152.5199479236857,
        "alt_km": 325.90246883175587,
        "timestamp": "2025-12-18T13:51:48.380962+00:00",
        "meta_object_name": "STARLINK-36057",
        "meta_object_id": "2025-283G",
        "meta_epoch": "2025-12-18T06:00:02.999808",
        "meta_mean_motion": 15.79924155,
        "meta_eccentricity": 8.201e-05,
        "meta_inclination": 53.1551,
        "meta_ra_of_asc_node": 46.0822,
        "meta_arg_of_pericenter": 91.1417,
        "meta_mean_anomaly": 306.0859,
        "meta_ephemeris_type": 0,
        "meta_classification_type": "U",
        "meta_norad_cat_id": 66884,
        "meta_element_set_no": 999,
        "meta_rev_at_epoch": 331,
        "meta_bstar": -0.0083916974,
        "meta_mean_motion_dot": -0.01409571,
        "meta_mean_motion_ddot": 0,
        "tle_line1": "1 66884U 25283G   25352.25003472 -.01409571  00000+0 -83917-2 0  9990",
        "tle_line2": "2 66884  53.1551  46.0822 0000820  91.1417 306.0859 15.79924155  3315"
      },
      "geometry": {
        "type": "Point",
        "coordinates": [
          152.5199479236857,
          51.733551092297304
        ]
      }
    }
  ]
}